#aV2007  3 31  0  0   .00000000      96 DD+AD WGS84 FIT  NGA
## 1420 518400.00000000   900.00000000 54190  .0000000000000
+   30     1  2  3  4  5  6  7  8  9 10 11 12 13 14 16 17 18
+         19 20 21 22 23 24 25 26 27 28 29 30 31  0  0  0  0
+          0  0  0  0  0  0  0  0  0  0  0  0  0  0  0  0  0
+          0  0  0  0  0  0  0  0  0  0  0  0  0  0  0  0  0
+          0  0  0  0  0  0  0  0  0  0  0  0  0  0  0  0  0
++         0  0  0  0  0  0  0  0  0  0  0  0  0  0  0  0  0
++         0  0  0  0  0  0  0  0  0  0  0  0  0  0  0  0  0
++         0  0  0  0  0  0  0  0  0  0  0  0  0  0  0  0  0
++         0  0  0  0  0  0  0  0  0  0  0  0  0  0  0  0  0
++         0  0  0  0  0  0  0  0  0  0  0  0  0  0  0  0  0
%c cc cc ccc ccc cccc cccc cccc cccc ccccc ccccc ccccc ccccc
%c cc cc ccc ccc cccc cccc cccc cccc ccccc ccccc ccccc ccccc
%f  0.0000000  0.000000000  0.00000000000  0.000000000000000
%f  0.0000000  0.000000000  0.00000000000  0.000000000000000
%i    0    0    0    0      0      0      0      0         0
%i    0    0    0    0      0      0      0      0         0
/*      NGA, ST. LOUIS,MO.                                  
/*   EPHEMERIS COMPUTED FROM  3 DAYS OF DATA                
/* CCCCCCCCCCCCCCCCCCCCCCCCCCCCCCCCCCCCCCCCCCCCCCCCCCCCCCCCC
/* CCCCCCCCCCCCCCCCCCCCCCCCCCCCCCCCCCCCCCCCCCCCCCCCCCCCCCCCC
*  2007  3 31  4 15   .00000000                                                 
P  1  14549.493373 -22129.775264  -1311.842332    117.150119                    
V  1    648.625133   2641.800936 -32379.624700       .026410                    
P  2 -12886.563289  13642.541006  18463.065024     94.873422                    
V  2 -24094.854633  -1212.490925 -15994.718914       .031940                    
P  3   9936.208752 -24432.442827   -646.350950     35.591207                    
V  3   4083.185837   1102.620589  31172.284863       .055101                    
P  4 -24209.504364   6727.751593   9084.996978      9.372365                    
V  4 -11562.491377  -2622.194720 -28297.020339       .008920                    
P  5  14691.478503  22183.142410  -1666.985368     39.949126                    
V  5  -3785.079780    486.057444 -31079.221474      -.038829                    
P  6  11577.769929  11644.874571  21057.995718    116.943946                    
V  6 -12502.223170  23284.589806  -6104.727349       .201047                    
P  7  14513.979207   6553.170751  21601.300454    364.126321                    
V  7 -11384.662361  24178.864929    243.367391      -.146103                    
P  8 -26793.666632   -630.239804     -2.688832   -101.947375                    
V  8    181.639018  -1930.787919  31820.793684      -.014415                    
P  9   6891.093520  14639.842159 -21686.916956     63.918434                    
V  9 -26048.452190   1981.680444  -6908.506937       .017079                    
P 10  -3075.344591  19204.621273  17822.089928     99.587593                    
V 10 -12880.502923 -19081.040444  18538.931917       .005738                    
P 11  -9889.687560 -14531.656032 -20072.100111     11.859937                    
V 11  24850.116267  -5841.500880  -7764.223916       .011624                    
P 12  11755.950475  23614.153172  -3221.671189    -44.053988                    
V 12  -4538.986431  -2175.996427 -31382.441469       .001920                    
P 13 -12153.067254  -7789.689996  22197.924047    158.398878                    
V 13  14476.451004 -24352.606151   -571.875310       .037437                    
P 14  18259.338812 -11341.661771 -15476.064881     13.821196                    
V 14  -8582.677552  17869.025601 -23164.247263       .015490                    
P 16   8073.979261 -14643.518838  20688.608349    135.609800                    
V 16  14040.728482  22024.418364  10289.868714       .033243                    
P 17 -18468.631812   9478.441794 -16488.947554     73.372939                    
V 17   8519.793470 -19293.312224 -20746.962500      -.012718                    
P 18  18559.464057  12557.464319 -14374.642479   -252.393710                    
V 18   7026.687110  17100.946625  23467.506946       .005018                    
P 19   5832.213887 -23423.785167 -10862.643965     20.026656                    
V 19   9706.221331 -10398.438044  27489.803647       .037828                    
P 20 -12589.660532 -23310.281609  -2292.869443    -23.278329                    
V 20   4023.140736    780.021221 -31380.670251      -.003059                    
P 21  25129.322744   5813.091147   7579.226889     74.512819                    
V 21  -9395.779262   2676.394565  28944.130336       .006954                    
P 22  16820.334493    514.606203 -20402.370670    174.483408                    
V 22  11615.462620  23591.303334  10072.673129       .017981                    
P 23  -5118.730770 -17679.649739  18993.871996    157.289323                    
V 23  12907.108865 -20669.454304 -15883.066731       .021106                    
P 24  15318.770129  12842.755970  17547.737812     89.051423                    
V 24 -22048.582063   1212.543020  18871.665996       .029001                    
P 25    141.336252 -15549.811326  21954.961735    265.506214                    
V 25  26739.603773  -3012.028678  -2185.153918      -.249052                    
P 26  -6676.307330  23650.063791  -9704.258559   -116.319570                    
V 26  -7747.333274   9187.028122  29551.408967      -.195668                    
P 27 -24284.879403  -5223.699529  10385.242507    102.295466                    
V 27  11952.027733  -3097.408052  27910.236594       .021254                    
P 28 -17974.062940  -5066.358767 -18690.173041      4.242990                    
V 28 -10995.326628 -21714.419909  15834.156252      -.007490                    
P 29  -9833.597941  24020.600667  -4399.537335      1.074182                    
V 29  -4770.113901   4117.342352  31961.744788       .005848                    
P 30  17812.976215  18589.331575   6457.743864     29.655768                    
V 30   2127.959340   8877.306437 -29898.496642       .011110                    
P 31  22848.038855  -8280.703257  10997.268496     18.017509                    
V 31  13696.099905   1962.751404 -27415.696871       .014587                    
EOF
